sat1_satellite_id,sat1_epoch,sat1_mean_motion,sat1_eccentricity,sat1_inclination,sat1_raan,sat1_argument_of_perigee,sat1_mean_anomaly,sat1_perigee,sat1_apogee,sat1_period,sat1_semi_major_axis,sat1_orbital_energy,sat1_orbital_angular_momentum,sat1_rev_number,sat1_bstar,sat1_mean_motion_derivative,sat1_cluster,sat2_satellite_id,sat2_epoch,sat2_mean_motion,sat2_eccentricity,sat2_inclination,sat2_raan,sat2_argument_of_perigee,sat2_mean_anomaly,sat2_perigee,sat2_apogee,sat2_period,sat2_semi_major_axis,sat2_orbital_energy,sat2_orbital_angular_momentum,sat2_rev_number,sat2_bstar,sat2_mean_motion_derivative,sat2_cluster,mean_motion_difference,eccentricity_difference,inclination_difference,raan_difference,argument_of_perigee_difference,mean_anomaly_difference,perigee_difference,apogee_difference,period_difference,semi_major_axis_difference,orbital_energy_difference,orbital_angular_momentum_difference,bstar_difference,mean_motion_derivative_difference,synodic_period,close_approach
STARLINK-1961,25034.11203833,16.01834996,0.0008416,0.9257261259162963,5.869270003093619,2.068012705420049,5.978044158065662,270.87962125023387,282.0686497150791,1.4982816619646364,6647.4741354826565,-29981345.82219466,51475083783.41689,22171,0.0015678,0.0091245,0,STARLINK-11182 [DTC],25033.00992456,15.69714741,0.0001464,0.9277227825805779,4.560852513409535,1.3043857791119782,4.9808590165849616,365.8637622598153,367.8366047935515,1.528940219081498,6737.850183526683,-29579200.408353917,51823836237.51942,2881,4.0426e-08,-5.84e-06,0,0.32120254999999887,0.0006952,-0.0019966566642816153,1.308417489684084,0.7636269263080708,0.9971851414807,-94.98414100958144,-85.76795507847237,-0.030658557116861607,-90.3760480440269,-402145.4138407409,-348752454.1025238,0.001567759574,0.00913034,74.71920755299054,False
STARLINK-3758,25034.45816020,15.08867641,0.0001371,0.9288066320460664,1.5941715214668566,1.7039143341737562,4.58127461098712,545.8474729565587,547.744332593099,1.5905967725634305,6917.795902774829,-28809786.195059292,52511298320.44119,15423,0.00044751999999999997,6.847e-05,0,STARLINK-32292,25034.59547683,15.30190675,0.0001075,0.9278065583846736,3.1570667427379746,1.6543382567708573,4.630807055158718,481.6431739892978,483.1166506704485,1.56843198642548,6853.379912329873,-29080573.884637594,52266243688.53216,1399,2.7449e-05,4.54e-06,0,-0.21323034000000085,2.96e-05,0.001000073661392764,-1.562895221271118,0.04957607740289882,-0.0495324441715983,64.20429896726091,64.62768192265048,0.022164786137950365,64.41599044495615,270787.6895783022,245054631.90903473,0.00042007099999999994,6.393e-05,-112.55433912453361,False
STARLINK-5815,25034.57382706,14.98329395,0.0002945,1.2217426937007945,2.2815519940723035,4.620677164180144,1.663944548973834,577.1479295002691,581.2415942150037,1.6017839655344925,6950.194761857636,-28675487.19551729,52634118805.19413,10724,-6.5509e-05,-8.75e-06,0,STARLINK-31513,25034.12251911,15.40689396,0.0001045,0.7505439382351216,0.9566847761881718,4.536821074938824,1.747654030557986,450.49752955923395,451.9233715433984,1.557744219069057,6822.210450551316,-29213437.835810848,52147253714.328064,4506,-1.7489e-05,-1.033e-05,0,-0.42360000999999947,0.00019,0.4711987554656729,1.3248672178841316,0.08385608924132004,-0.08370948158415192,126.65039994103518,129.31822267160533,0.044039746465435625,127.9843113063198,537950.6402935572,486865090.866066,-4.802e-05,1.5800000000000001e-06,-56.65722245851701,False
STARLINK-3758,25034.45816020,15.08867641,0.0001371,0.9288066320460664,1.5941715214668566,1.7039143341737562,4.58127461098712,545.8474729565587,547.744332593099,1.5905967725634305,6917.795902774829,-28809786.195059292,52511298320.44119,15423,0.00044751999999999997,6.847e-05,0,STARLINK-5643,25034.36800308,14.98329491,0.000245,1.2217374577130387,0.19981052875606684,4.553310945711666,1.7314119965389267,577.4916673414491,580.8972626292934,1.601783862906024,6950.194464985371,-28675488.420368895,52634118383.88471,11174,4.3113000000000005e-06,-4.1e-07,0,0.10538150000000002,-0.0001079,-0.29293082566697226,1.3943609927107898,-2.8493966115379097,2.8498626144481936,-31.644194384890397,-33.15293003619445,-0.011187090342593464,-32.39856221054197,-134297.77469039708,-122820063.44351959,0.00044320869999999997,6.888e-05,227.74395885425997,False
STARLINK-1079,25034.23878080,15.45059354,0.0008329,0.9257889577693681,4.892876968991928,1.7896885402630174,4.496879215006934,432.66917789350464,444.0121775944908,1.5533383839181598,6809.340677743998,-29268651.743538577,52098026062.50837,28048,0.0015877,0.00076628,0,STARLINK-30961,25034.46097821,15.0253523,7.9e-05,0.7505596461983896,0.9127321496351986,5.21085501475427,1.0736619786445878,565.6708631592855,566.7669437460318,1.5973003175439662,6937.218903452659,-28729123.828110445,52584964605.12322,6666,-3.0301e-05,-6.13e-06,0,0.4252412400000001,0.0007539000000000001,0.17522931157097854,3.9801448193567293,-3.421166474491253,3.423217236362346,-133.0016852657809,-122.75476615154093,-0.04396193362580636,-127.87822570866138,-539527.9154281318,-486938542.6148529,0.001618001,0.0007724100000000001,56.438552384994445,False
STARLINK-2468,25034.59836476,15.06393502,0.0001584,0.9259757079993315,2.8485536175091974,1.8851318704083273,4.400081509362076,553.2714950777863,555.4654518101734,1.593209209156557,6925.36847344398,-28778284.02405398,52540031060.90823,21226,0.00014093,1.818e-05,0,STARLINK-31432,25034.46670614,15.40628517,0.0001203,0.7503798772854341,1.2517745741398612,2.650765925356192,3.6340268300644816,450.5694387354506,452.210905810899,1.557805774407846,6822.390172273174,-29212668.26836943,52147940490.92017,3941,-0.0035475000000000003,-0.00145357,0,-0.3423501499999997,3.8100000000000005e-05,0.1755958307138974,1.5967790433693363,-0.7656340549478646,0.7660546792975946,102.70205634233571,103.25454599927434,0.035403434748711105,102.97830117080593,434384.24431544915,392090569.98806,0.0036884300000000004,0.00147175,-70.10366433313914,False
GLOBALSTAR M077,25034.47901796,12.62270425,8.7e-05,0.9076846574384311,2.4982101860978716,1.9402057349550084,5.729673333531356,1420.046292894167,1421.40205290025,1.9013358409312304,7791.7241728972085,-25578449.19526892,55729567324.651665,66026,0.00017331,-7.3e-07,0,YAOGAN-35 05A,25034.01952168,15.2305316,0.0019438,0.6109053807708111,4.152953359255191,2.807414461710439,3.478299827555287,490.41145909176794,517.1378330057478,1.5757821611426857,6874.774646048758,-28990073.298554853,52347663342.30577,13446,0.00099607,0.00024243,0,-2.607827350000001,-0.0018568,0.29677927666761994,-1.6547431731573194,-0.8672087267554305,2.251373505976069,929.634833802399,904.2642198945023,0.32555367978854477,916.9495268484507,3411624.103285931,3381903982.345894,-0.00082276,-0.00024316,-9.20306323192752,False
STARLINK-2673,25034.48500869,15.06368081,9.06e-05,0.9259442920727957,1.9847517734536597,1.141288251171612,5.143787247587885,553.8189413608607,555.0738322461502,1.5932360956604714,6925.446386803505,-28777960.25968351,52540327052.49396,20353,0.0010882,0.0001595,0,STARLINK-30347,25033.58549066,15.02537751,0.0001031,0.7505212489548456,2.1286541702805923,4.79170372291232,1.4927452026457102,565.4959173412053,566.9263702790586,1.597297637548673,6937.211143810132,-28729155.963175446,52584935080.20967,8061,5.937e-05,5.99e-06,0,0.03830329999999904,-1.2499999999999992e-05,0.1754230431179501,-0.14390239682693262,-3.6504154717407085,3.6510420449421748,-11.67697598034465,-11.852538032908342,-0.004061541888201514,-11.764757006626496,-48804.29650806263,-44608027.7157135,0.0010288300000000001,0.00015351,626.5778666590678,False
STARLINK-3079,25034.60261474,15.08840125,0.000125,0.9287944147413024,3.502732691753956,1.578287279944456,4.706878975936144,546.0152718882737,547.7447418899956,1.5906257795205416,6917.880006889135,-28809435.94013309,52511617609.62927,17975,-2.5379000000000002e-05,-6.92e-06,0,STARLINK-11361 [DTC],25034.45231885,15.69709701,0.0001439,0.9278048130554216,1.823642175531315,1.8856903757689656,4.3995456932817145,365.8950273266537,367.8341847602733,1.5289451281794662,6737.864606043463,-29579137.093559224,51823891721.327,1804,4.929200000000001e-06,8e-08,0,-0.6086957599999998,-1.89e-05,0.0009896016858808032,1.6790905162226408,-0.30740309582450953,0.3073332826544295,180.12024456161998,179.9105571297223,0.061680651341075476,180.01540084567205,769701.1534261331,687725888.302269,-3.0308200000000002e-05,-7e-06,-39.42856444408271,False
HELLAS-SAT 4 & SGS-1,25034.54849133,1.00271198,0.0002747,0.001228711793404008,2.1313123067313797,0.777807726480525,3.5552147423614255,35782.31382232829,35805.47921647605,23.935088518639187,42164.896519402166,-4726685.877393107,129641602554.23912,2235,0.0,1.57e-06,1,STARLINK-32292,25034.59547683,15.30190675,0.0001075,0.9278065583846736,3.1570667427379746,1.6543382567708573,4.630807055158718,481.6431739892978,483.1166506704485,1.56843198642548,6853.379912329873,-29080573.884637594,52266243688.53216,1399,2.7449e-05,4.54e-06,0,-14.29919477,0.0001672,-0.9265778465912696,-1.0257544360065949,-0.8765305302903323,-1.0755923127972928,35300.670648338986,35322.362565805604,22.366656532213707,35311.51660707229,24353888.007244486,77375358865.70697,-2.7449e-05,-2.9699999999999995e-06,-1.678416189585196,False
VNREDSAT 1,25034.53234904,14.64573005,0.0001084,1.7098676522523086,1.7504762279584607,1.6560574060840716,4.629443953012911,684.8186715677984,686.3485388934132,1.6387028791371157,7056.583605230606,-28243160.153628897,53035434471.60665,62728,0.00030499,1.573e-05,0,ONEWEB-0457,25034.24747538,13.10375781,0.000163,1.53400827682136,2.368427502919573,1.656568787554906,4.628909882261801,1227.6039161051776,1230.0814648222686,1.8315356822059556,7599.842690463724,-26224256.082310986,55039082237.47787,14400,0.00036128,1.39e-06,0,1.5419722399999998,-5.46e-05,0.17585937543094854,-0.6179512749611125,-0.0005113814708344044,0.0005340707511098941,-542.7852445373792,-543.7329259288554,-0.19283280306884,-543.2590852331177,-2018904.0713179111,-2003647765.8712158,-5.629000000000002e-05,1.434e-05,15.564482535690805,False
